{"fetched_at":"2026-07-07T07:58:52.599Z","source":"https://celestrak.org/NORAD/elements/gp.php?NAME=SPACEMOBILE&FORMAT=JSON","constellation":"ast-spacemobile","records":[{"OBJECT_NAME":"SPACEMOBILE-003","OBJECT_ID":"2024-163A","EPOCH":"2026-06-26T19:29:47.816736","CLASSIFICATION_TYPE":"U","MEAN_MOTION":15.20822722,"ECCENTRICITY":0.0005991,"INCLINATION":52.9744,"RA_OF_ASC_NODE":265.1828,"ARG_OF_PERICENTER":141.0621,"MEAN_ANOMALY":219.0806,"EPHEMERIS_TYPE":0,"NORAD_CAT_ID":61045,"ELEMENT_SET_NO":999,"REV_AT_EPOCH":9923,"BSTAR":0.000090246,"MEAN_MOTION_DOT":0.00001689,"MEAN_MOTION_DDOT":0},{"OBJECT_NAME":"SPACEMOBILE-005","OBJECT_ID":"2024-163B","EPOCH":"2026-07-06T07:47:25.125504","CLASSIFICATION_TYPE":"U","MEAN_MOTION":15.20800178,"ECCENTRICITY":0.00092973,"INCLINATION":52.9788,"RA_OF_ASC_NODE":221.376,"ARG_OF_PERICENTER":169.9979,"MEAN_ANOMALY":190.1202,"EPHEMERIS_TYPE":0,"NORAD_CAT_ID":61046,"ELEMENT_SET_NO":999,"REV_AT_EPOCH":10067,"BSTAR":-0.00017864937,"MEAN_MOTION_DOT":-0.00004321,"MEAN_MOTION_DDOT":0},{"OBJECT_NAME":"SPACEMOBILE-001","OBJECT_ID":"2024-163C","EPOCH":"2026-07-06T14:03:53.754048","CLASSIFICATION_TYPE":"U","MEAN_MOTION":15.20820517,"ECCENTRICITY":0.0007438,"INCLINATION":52.9741,"RA_OF_ASC_NODE":219.8899,"ARG_OF_PERICENTER":169.1843,"MEAN_ANOMALY":190.9313,"EPHEMERIS_TYPE":0,"NORAD_CAT_ID":61047,"ELEMENT_SET_NO":999,"REV_AT_EPOCH":10071,"BSTAR":0.000099523,"MEAN_MOTION_DOT":0.00001897,"MEAN_MOTION_DDOT":0},{"OBJECT_NAME":"SPACEMOBILE-002","OBJECT_ID":"2024-163D","EPOCH":"2026-07-06T13:40:56.380800","CLASSIFICATION_TYPE":"U","MEAN_MOTION":15.20857755,"ECCENTRICITY":0.0006454,"INCLINATION":52.9753,"RA_OF_ASC_NODE":220.004,"ARG_OF_PERICENTER":165.9423,"MEAN_ANOMALY":194.1752,"EPHEMERIS_TYPE":0,"NORAD_CAT_ID":61048,"ELEMENT_SET_NO":999,"REV_AT_EPOCH":10071,"BSTAR":0.00020708,"MEAN_MOTION_DOT":0.00004308,"MEAN_MOTION_DDOT":0},{"OBJECT_NAME":"SPACEMOBILE-004","OBJECT_ID":"2024-163E","EPOCH":"2026-07-05T21:29:19.575744","CLASSIFICATION_TYPE":"U","MEAN_MOTION":15.20802887,"ECCENTRICITY":0.00071224,"INCLINATION":52.9649,"RA_OF_ASC_NODE":222.8932,"ARG_OF_PERICENTER":193.0409,"MEAN_ANOMALY":167.0402,"EPHEMERIS_TYPE":0,"NORAD_CAT_ID":61049,"ELEMENT_SET_NO":999,"REV_AT_EPOCH":10061,"BSTAR":0.00071381053,"MEAN_MOTION_DOT":0.00015654,"MEAN_MOTION_DDOT":0},{"OBJECT_NAME":"SPACEMOBILE-006","OBJECT_ID":"2025-309A","EPOCH":"2026-07-06T10:59:32.468352","CLASSIFICATION_TYPE":"U","MEAN_MOTION":15.18641781,"ECCENTRICITY":0.0010687,"INCLINATION":52.9956,"RA_OF_ASC_NODE":243.3614,"ARG_OF_PERICENTER":186.7997,"MEAN_ANOMALY":173.2853,"EPHEMERIS_TYPE":0,"NORAD_CAT_ID":67232,"ELEMENT_SET_NO":999,"REV_AT_EPOCH":2952,"BSTAR":0.000073867,"MEAN_MOTION_DOT":0.00001228,"MEAN_MOTION_DDOT":0},{"OBJECT_NAME":"SPACEMOBILE-008","OBJECT_ID":"2026-139A","EPOCH":"2026-07-06T16:42:51.824160","CLASSIFICATION_TYPE":"U","MEAN_MOTION":15.12793552,"ECCENTRICITY":0.0004599,"INCLINATION":52.9937,"RA_OF_ASC_NODE":173.9927,"ARG_OF_PERICENTER":35.7409,"MEAN_ANOMALY":324.3889,"EPHEMERIS_TYPE":0,"NORAD_CAT_ID":69589,"ELEMENT_SET_NO":999,"REV_AT_EPOCH":293,"BSTAR":0.000052346,"MEAN_MOTION_DOT":0.00000628,"MEAN_MOTION_DDOT":0},{"OBJECT_NAME":"SPACEMOBILE-009","OBJECT_ID":"2026-139B","EPOCH":"2026-07-06T16:44:49.563168","CLASSIFICATION_TYPE":"U","MEAN_MOTION":15.12686889,"ECCENTRICITY":0.000485,"INCLINATION":52.9928,"RA_OF_ASC_NODE":173.9969,"ARG_OF_PERICENTER":30.9893,"MEAN_ANOMALY":329.1383,"EPHEMERIS_TYPE":0,"NORAD_CAT_ID":69590,"ELEMENT_SET_NO":999,"REV_AT_EPOCH":293,"BSTAR":0.00005253,"MEAN_MOTION_DOT":0.00000629,"MEAN_MOTION_DDOT":0},{"OBJECT_NAME":"SPACEMOBILE-010","OBJECT_ID":"2026-139C","EPOCH":"2026-07-06T16:47:56.575104","CLASSIFICATION_TYPE":"U","MEAN_MOTION":15.12518056,"ECCENTRICITY":0.0004729,"INCLINATION":52.9932,"RA_OF_ASC_NODE":174.0128,"ARG_OF_PERICENTER":22.0048,"MEAN_ANOMALY":338.1145,"EPHEMERIS_TYPE":0,"NORAD_CAT_ID":69591,"ELEMENT_SET_NO":999,"REV_AT_EPOCH":294,"BSTAR":0.000053259,"MEAN_MOTION_DOT":0.00000638,"MEAN_MOTION_DDOT":0}]}
