SPACEMOBILE-003         
1 61045U 24163A   26177.81235899  .00001689  00000+0  90246-4 0  9998
2 61045  52.9744 265.1828 0005991 141.0621 219.0806 15.20822722 99230
SPACEMOBILE-005         
1 61046U 24163B   26187.32459636 -.00004321  00000+0 -17865-3 0  9996
2 61046  52.9788 221.3760 0009297 169.9979 190.1202 15.20800178100677
SPACEMOBILE-001         
1 61047U 24163C   26187.58603882  .00001897  00000+0  99523-4 0  9994
2 61047  52.9741 219.8899 0007438 169.1843 190.9313 15.20820517100714
SPACEMOBILE-002         
1 61048U 24163D   26187.57009700  .00004308  00000+0  20708-3 0  9991
2 61048  52.9753 220.0040 0006454 165.9423 194.1752 15.20857755100712
SPACEMOBILE-004         
1 61049U 24163E   26186.89536546  .00015654  00000+0  71381-3 0  9998
2 61049  52.9649 222.8932 0007122 193.0409 167.0402 15.20802887100612
SPACEMOBILE-006         
1 67232U 25309A   26187.45801468  .00001228  00000+0  73867-4 0  9996
2 67232  52.9956 243.3614 0010687 186.7997 173.2853 15.18641781 29529
SPACEMOBILE-008         
1 69589U 26139A   26187.69643315  .00000628  00000+0  52346-4 0  9998
2 69589  52.9937 173.9927 0004599  35.7409 324.3889 15.12793552  2938
SPACEMOBILE-009         
1 69590U 26139B   26187.69779587  .00000629  00000+0  52530-4 0  9997
2 69590  52.9928 173.9969 0004850  30.9893 329.1383 15.12686889  2936
SPACEMOBILE-010         
1 69591U 26139C   26187.69996036  .00000638  00000+0  53259-4 0  9997
2 69591  52.9932 174.0128 0004729  22.0048 338.1145 15.12518056  2947
